{
  "type": "FeatureCollection",
  "features": [
    {
      "type": "Feature",
      "properties": {
        "norad_id": 66502,
        "name": "STARLINK-35922",
        "group": "last-30-days",
        "lat": -39.02036286399606,
        "lon": 105.4356388945979,
        "alt_km": 385.397439639848,
        "timestamp": "2025-12-05T18:53:12.096604+00:00",
        "meta_object_name": "STARLINK-35922",
        "meta_object_id": "2025-263T",
        "meta_epoch": "2025-12-05T06:00:02.000160",
        "meta_mean_motion": 15.63873664,
        "meta_eccentricity": 0.00013804,
        "meta_inclination": 42.9992,
        "meta_ra_of_asc_node": 169.0546,
        "meta_arg_of_pericenter": 267.1799,
        "meta_mean_anomaly": 241.244,
        "meta_ephemeris_type": 0,
        "meta_classification_type": "U",
        "meta_norad_cat_id": 66502,
        "meta_element_set_no": 999,
        "meta_rev_at_epoch": 443,
        "meta_bstar": -0.024228697,
        "meta_mean_motion_dot": -0.02050349,
        "meta_mean_motion_ddot": 0,
        "tle_line1": "1 66502U 25263T   25339.25002315 -.02050349  00000+0 -24229-1 0  9991",
        "tle_line2": "2 66502  42.9992 169.0546 0001380 267.1799 241.2440 15.63873664  4437"
      },
      "geometry": {
        "type": "Point",
        "coordinates": [
          105.4356388945979,
          -39.02036286399606
        ]
      }
    },
    {
      "type": "Feature",
      "properties": {
        "norad_id": 66503,
        "name": "STARLINK-35917",
        "group": "last-30-days",
        "lat": -37.643149235201406,
        "lon": 109.97970833129098,
        "alt_km": 385.2929582377319,
        "timestamp": "2025-12-05T18:53:12.096616+00:00",
        "meta_object_name": "STARLINK-35917",
        "meta_object_id": "2025-263U",
        "meta_epoch": "2025-12-05T06:00:02.000160",
        "meta_mean_motion": 15.63880889,
        "meta_eccentricity": 0.00014504,
        "meta_inclination": 42.9994,
        "meta_ra_of_asc_node": 169.0453,
        "meta_arg_of_pericenter": 270.3996,
        "meta_mean_anomaly": 241.8552,
        "meta_ephemeris_type": 0,
        "meta_classification_type": "U",
        "meta_norad_cat_id": 66503,
        "meta_element_set_no": 999,
        "meta_rev_at_epoch": 443,
        "meta_bstar": -0.024348596,
        "meta_mean_motion_dot": -0.02059782,
        "meta_mean_motion_ddot": 0,
        "tle_line1": "1 66503U 25263U   25339.25002315 -.02059782  00000+0 -24349-1 0  9995",
        "tle_line2": "2 66503  42.9994 169.0453 0001450 270.3996 241.8552 15.63880889  4437"
      },
      "geometry": {
        "type": "Point",
        "coordinates": [
          109.97970833129098,
          -37.643149235201406
        ]
      }
    },
    {
      "type": "Feature",
      "properties": {
        "norad_id": 66504,
        "name": "STARLINK-35916",
        "group": "last-30-days",
        "lat": -33.757678327617036,
        "lon": 120.8841788888147,
        "alt_km": 432.06234255926756,
        "timestamp": "2025-12-05T18:53:12.096626+00:00",
        "meta_object_name": "STARLINK-35916",
        "meta_object_id": "2025-263V",
        "meta_epoch": "2025-12-05T06:00:02.000160",
        "meta_mean_motion": 15.47809689,
        "meta_eccentricity": 0.00013926,
        "meta_inclination": 42.9997,
        "meta_ra_of_asc_node": 169.8353,
        "meta_arg_of_pericenter": 261.0612,
        "meta_mean_anomaly": 291.3465,
        "meta_ephemeris_type": 0,
        "meta_classification_type": "U",
        "meta_norad_cat_id": 66504,
        "meta_element_set_no": 999,
        "meta_rev_at_epoch": 443,
        "meta_bstar": -0.043472499,
        "meta_mean_motion_dot": -0.02057396,
        "meta_mean_motion_ddot": 0,
        "tle_line1": "1 66504U 25263V   25339.25002315 -.02057396  00000+0 -43472-1 0  9993",
        "tle_line2": "2 66504  42.9997 169.8353 0001392 261.0612 291.3465 15.47809689  4439"
      },
      "geometry": {
        "type": "Point",
        "coordinates": [
          120.8841788888147,
          -33.757678327617036
        ]
      }
    },
    {
      "type": "Feature",
      "properties": {
        "norad_id": 66505,
        "name": "STARLINK-34766",
        "group": "last-30-days",
        "lat": -40.21472051647742,
        "lon": 100.71979599274232,
        "alt_km": 385.42596110180966,
        "timestamp": "2025-12-05T18:53:12.096636+00:00",
        "meta_object_name": "STARLINK-34766",
        "meta_object_id": "2025-263W",
        "meta_epoch": "2025-12-05T06:00:02.000160",
        "meta_mean_motion": 15.63880371,
        "meta_eccentricity": 0.00013777,
        "meta_inclination": 42.999,
        "meta_ra_of_asc_node": 169.0643,
        "meta_arg_of_pericenter": 267.4451,
        "meta_mean_anomaly": 237.141,
        "meta_ephemeris_type": 0,
        "meta_classification_type": "U",
        "meta_norad_cat_id": 66505,
        "meta_element_set_no": 999,
        "meta_rev_at_epoch": 443,
        "meta_bstar": -0.024330319,
        "meta_mean_motion_dot": -0.02058337,
        "meta_mean_motion_ddot": 0,
        "tle_line1": "1 66505U 25263W   25339.25002315 -.02058337  00000+0 -24330-1 0  9992",
        "tle_line2": "2 66505  42.9990 169.0643 0001377 267.4451 237.1410 15.63880371  4434"
      },
      "geometry": {
        "type": "Point",
        "coordinates": [
          100.71979599274232,
          -40.21472051647742
        ]
      }
    },
    {
      "type": "Feature",
      "properties": {
        "norad_id": 66506,
        "name": "STARLINK-34765",
        "group": "last-30-days",
        "lat": -39.64194445981342,
        "lon": 103.09691996285282,
        "alt_km": 385.33980605638953,
        "timestamp": "2025-12-05T18:53:12.096646+00:00",
        "meta_object_name": "STARLINK-34765",
        "meta_object_id": "2025-263X",
        "meta_epoch": "2025-12-05T06:00:02.000160",
        "meta_mean_motion": 15.6388285,
        "meta_eccentricity": 0.00014381,
        "meta_inclination": 42.9991,
        "meta_ra_of_asc_node": 169.0601,
        "meta_arg_of_pericenter": 270.515,
        "meta_mean_anomaly": 235.9856,
        "meta_ephemeris_type": 0,
        "meta_classification_type": "U",
        "meta_norad_cat_id": 66506,
        "meta_element_set_no": 999,
        "meta_rev_at_epoch": 443,
        "meta_bstar": -0.024349547,
        "meta_mean_motion_dot": -0.02059984,
        "meta_mean_motion_ddot": 0,
        "tle_line1": "1 66506U 25263X   25339.25002315 -.02059984  00000+0 -24350-1 0  9994",
        "tle_line2": "2 66506  42.9991 169.0601 0001438 270.5150 235.9856 15.63882850  4433"
      },
      "geometry": {
        "type": "Point",
        "coordinates": [
          103.09691996285282,
          -39.64194445981342
        ]
      }
    },
    {
      "type": "Feature",
      "properties": {
        "norad_id": 66507,
        "name": "STARLINK-34767",
        "group": "last-30-days",
        "lat": -38.35414631241267,
        "lon": 107.72743572854365,
        "alt_km": 385.3030329798921,
        "timestamp": "2025-12-05T18:53:12.096656+00:00",
        "meta_object_name": "STARLINK-34767",
        "meta_object_id": "2025-263Y",
        "meta_epoch": "2025-12-05T06:00:02.000160",
        "meta_mean_motion": 15.6387498,
        "meta_eccentricity": 0.00014632,
        "meta_inclination": 42.9993,
        "meta_ra_of_asc_node": 169.0493,
        "meta_arg_of_pericenter": 270.1362,
        "meta_mean_anomaly": 240.2066,
        "meta_ephemeris_type": 0,
        "meta_classification_type": "U",
        "meta_norad_cat_id": 66507,
        "meta_element_set_no": 999,
        "meta_rev_at_epoch": 443,
        "meta_bstar": -0.024286857,
        "meta_mean_motion_dot": -0.02054808,
        "meta_mean_motion_ddot": 0,
        "tle_line1": "1 66507U 25263Y   25339.25002315 -.02054808  00000+0 -24287-1 0  9994",
        "tle_line2": "2 66507  42.9993 169.0493 0001463 270.1362 240.2066 15.63874980  4431"
      },
      "geometry": {
        "type": "Point",
        "coordinates": [
          107.72743572854365,
          -38.35414631241267
        ]
      }
    },
    {
      "type": "Feature",
      "properties": {
        "norad_id": 66508,
        "name": "STARLINK-35608",
        "group": "last-30-days",
        "lat": -36.09644815771305,
        "lon": 114.35107472174276,
        "alt_km": 385.25443585099947,
        "timestamp": "2025-12-05T18:53:12.096665+00:00",
        "meta_object_name": "STARLINK-35608",
        "meta_object_id": "2025-263Z",
        "meta_epoch": "2025-12-05T06:00:02.000160",
        "meta_mean_motion": 15.63879236,
        "meta_eccentricity": 0.00014643,
        "meta_inclination": 42.9996,
        "meta_ra_of_asc_node": 169.0359,
        "meta_arg_of_pericenter": 269.6969,
        "meta_mean_anomaly": 246.3933,
        "meta_ephemeris_type": 0,
        "meta_classification_type": "U",
        "meta_norad_cat_id": 66508,
        "meta_element_set_no": 999,
        "meta_rev_at_epoch": 443,
        "meta_bstar": -0.024332033,
        "meta_mean_motion_dot": -0.02058451,
        "meta_mean_motion_ddot": 0,
        "tle_line1": "1 66508U 25263Z   25339.25002315 -.02058451  00000+0 -24332-1 0  9994",
        "tle_line2": "2 66508  42.9996 169.0359 0001464 269.6969 246.3933 15.63879236  4432"
      },
      "geometry": {
        "type": "Point",
        "coordinates": [
          114.35107472174276,
          -36.09644815771305
        ]
      }
    }
  ]
}